STARLINK-32806          
1 62735U 25014A   25034.16668981 -.01379043  00000+0 -13834-1 0  9992
2 62735  42.9994 260.3800 0001826 272.7771  90.2165 15.67658887  2041
STARLINK-32329          
1 62736U 25014B   25033.91668981 -.01413263  00000+0 -13775-1 0  9992
2 62736  42.9990 261.8767 0001727 273.2827 118.6819 15.68432199  2008
STARLINK-32774          
1 62737U 25014C   25034.16668981 -.01379930  00000+0 -13843-1 0  9999
2 62737  42.9993 260.3653 0001885 274.4592  94.2841 15.67660064  2048
STARLINK-32802          
1 62738U 25014D   25033.91668981 -.01372206  00000+0 -13347-1 0  9990
2 62738  42.9989 261.8720 0001586 276.1751 117.7382 15.68391423  3075
STARLINK-32796          
1 62739U 25014E   25033.91668981 -.01390680  00000+0 -13539-1 0  9990
2 62739  42.9988 261.8622 0001701 267.0866 130.6457 15.68409782  3076
STARLINK-32805          
1 62740U 25014F   25034.16668981 -.01378322  00000+0 -13826-1 0  9998
2 62740  42.9993 260.3555 0001841 272.1343 100.4448 15.67658431  2042
STARLINK-32770          
1 62741U 25014G   25034.16668981 -.01380501  00000+0 -13850-1 0  9998
2 62741  42.9994 260.3505 0001813 271.1922 103.3031 15.67659933  2048
STARLINK-32775          
1 62742U 25014H   25034.16668981 -.01376263  00000+0 -13803-1 0  9997
2 62742  42.9987 260.3461 0001953 273.7460 102.6676 15.67656656  2048
STARLINK-32800          
1 62743U 25014J   25034.16668981 -.01378435  00000+0 -13827-1 0  9997
2 62743  42.9991 260.3409 0001860 273.8774 104.4524 15.67658710  2047
STARLINK-32758          
1 62744U 25014K   25034.16668981 -.01373395  00000+0 -13773-1 0  9998
2 62744  42.9993 260.3316 0001854 276.4027 105.7651 15.67653432  2041
STARLINK-32746          
1 62745U 25014L   25034.16668981 -.01373881  00000+0 -13776-1 0  9992
2 62745  42.9986 260.3364 0002042 274.0337 106.2134 15.67655745  2046
STARLINK-32780          
1 62746U 25014M   25033.91668981 -.01414806  00000+0 -13792-1 0  9996
2 62746  42.9988 261.8237 0001727 273.5180 139.5352 15.68432271  3076
STARLINK-32765          
1 62747U 25014N   25034.16668981 -.01374961  00000+0 -13787-1 0  9996
2 62747  42.9990 260.3259 0002114 273.1074 110.9731 15.67657069  2040
STARLINK-32762          
1 62748U 25014P   25034.16668981 -.01378748  00000+0 -13829-1 0  9991
2 62748  42.9990 260.3176 0002035 275.9120 112.0009 15.67659480  2043
STARLINK-32761          
1 62749U 25014Q   25034.16668981 -.01376102  00000+0 -13801-1 0  9994
2 62749  42.9987 260.3119 0001962 278.0439 111.7883 15.67656860  2047
STARLINK-32763          
1 62750U 25014R   25033.91668981 -.01440937  00000+0 -13802-1 0  9997
2 62750  42.9987 261.8091 0001677 271.2786 147.5232 15.68434419  3071
STARLINK-32759          
1 62751U 25014S   25033.91668981 -.01407050  00000+0 -13709-1 0  9993
2 62751  42.9989 261.8039 0001619 268.6601 152.0600 15.68428889  3072
STARLINK-32756          
1 62752U 25014T   25034.16668981 -.01374730  00000+0 -13786-1 0  9995
2 62752  42.9991 260.2972 0001919 273.8063 121.7778 15.67656413  2048
STARLINK-32751          
1 62753U 25014U   25034.16668981 -.01376991  00000+0 -13811-1 0  9996
2 62753  42.9994 260.2922 0001833 273.1261 124.3741 15.67658409  2041
STARLINK-32740          
1 62754U 25014V   25033.91668981 -.01411492  00000+0 -13758-1 0  9995
2 62754  42.9990 261.7904 0001535 274.4577 152.0168 15.68429850  3147
STARLINK-32745          
1 62755U 25014W   25034.16668981 -.01377466  00000+0 -13815-1 0  9990
2 62755  42.9992 260.2828 0001972 274.1774 127.1554 15.67659273  2043
USA 485                 
1 62756U 25014X   25032.60368197  .00310504  00000+0  11718-2 0  9992
2 62756  43.0066 269.2872 0003084 251.4322 108.6216 15.86119591  1806
USA 486                 
1 62757U 25014Y   25032.79178592  .00282307  00000+0  10587-2 0  9993
2 62757  43.0072 268.1165 0002384 245.2221 114.8404 15.86320291  1830
STARLINK-33596          
1 62758U 25015A   25034.16668981 -.01695863  00000+0 -11332-1 0  9990
2 62758  53.1589  23.9450 0000982  83.3694 220.6073 15.77454406  3169
STARLINK-33589          
1 62759U 25015B   25033.91668981 -.00879382  00000+0 -47439-2 0  9990
2 62759  53.1598  25.3989 0001204  92.9028 130.8570 15.81677464  3135
STARLINK-33575          
1 62760U 25015C   25034.16668981  .00379960  00000+0  14995-2 0  9996
2 62760  53.1597  24.1188 0001565 100.4137 120.9716 15.85289418  3167
STARLINK-33584          
1 62761U 25015D   25034.16668981 -.00948023  00000+0 -52757-2 0  9999
2 62761  53.1600  24.1359 0001170  84.1078 128.7581 15.81188791  3228
STARLINK-33577          
1 62762U 25015E   25034.16668981 -.00955635  00000+0 -53297-2 0  9997
2 62762  53.1601  24.1305 0001140  85.6511 129.9652 15.81161930  3224
STARLINK-33597          
1 62763U 25015F   25033.91668981 -.00911875  00000+0 -49518-2 0  9999
2 62763  53.1596  25.3776 0001297  85.0025 149.2801 15.81618061  3199
STARLINK-33579          
1 62764U 25015G   25033.91668981 -.00915078  00000+0 -49776-2 0  9995
2 62764  53.1599  25.3719 0001081  91.1808 145.8826 15.81592221  3196
STARLINK-33592          
1 62765U 25015H   25034.16668981 -.00987451  00000+0 -55445-2 0  9998
2 62765  53.1599  24.1145 0001338  97.4761 126.1109 15.81097585  3097
STARLINK-33595          
1 62766U 25015J   25034.16668981 -.01010637  00000+0 -57000-2 0  9992
2 62766  53.1600  24.1083 0001079  82.7550 143.7462 15.81065452  3227
STARLINK-33572          
1 62767U 25015K   25034.16668981 -.01022022  00000+0 -57798-2 0  9998
2 62767  53.1601  24.1027 0001163  95.8146 133.3482 15.81036591  3169
STARLINK-33601          
1 62768U 25015L   25034.16668981 -.01028264  00000+0 -58210-2 0  9993
2 62768  53.1600  24.0976 0001203  89.5941 141.8104 15.81030869  3223
STARLINK-33569          
1 62769U 25015M   25034.16668981 -.01036115  00000+0 -58794-2 0  9995
2 62769  53.1599  24.0920 0001116  85.2005 148.8324 15.81001564  3228
STARLINK-33594          
1 62770U 25015N   25034.16668981 -.01069707  00000+0 -59935-2 0  9998
2 62770  53.1598  24.0814 0001054  82.2011 157.0325 15.80944414  3228
STARLINK-33598          
1 62771U 25015P   25034.16668981 -.01042839  00000+0 -59286-2 0  9995
2 62771  53.1602  24.0876 0001081  82.8050 153.7203 15.80979758  3229
STARLINK-33600          
1 62772U 25015Q   25034.25001157 -.01041383  00000+0 -59966-2 0  9990
2 62772  53.1601  23.6589 0000892  72.0616 284.3261 15.80703258  3240
STARLINK-33567          
1 62773U 25015R   25034.16668981 -.01085569  00000+0 -61114-2 0  9997
2 62773  53.1601  24.0711 0000952  84.8153 159.7140 15.80877819  3221
STARLINK-33574          
1 62774U 25015S   25034.16668981 -.01096032  00000+0 -61895-2 0  9991
2 62774  53.1602  24.0646 0001097  87.4655 159.8992 15.80832673  2793
STARLINK-33576          
1 62775U 25015T   25034.16668981 -.01106165  00000+0 -62585-2 0  9998
2 62775  53.1599  24.0594 0000937  83.7899 165.9793 15.80815967  3168
STARLINK-33570          
1 62776U 25015U   25034.16668981 -.01125098  00000+0 -63867-2 0  9999
2 62776  53.1600  24.0543 0001208  94.1413 158.2913 15.80784045  3167
STARLINK-33591          
1 62777U 25015V   25034.16668981 -.01141135  00000+0 -64956-2 0  9990
2 62777  53.1601  24.0494 0001149  94.4202 160.4974 15.80760886  3223
STARLINK-33573          
1 62778U 25015W   25034.16668981 -.01161476  00000+0 -66418-2 0  9996
2 62778  53.1601  24.0432 0001071  85.6183 172.1866 15.80708168  3225
STARLINK-33568          
1 62779U 25015X   25034.16668981 -.01164865  00000+0 -66639-2 0  9997
2 62779  53.1602  24.0387 0001015  90.9437 168.9224 15.80707483  3067
STARLINK-33593          
1 62780U 25015Y   25034.16668981 -.01175776  00000+0 -67548-2 0  9992
2 62780  53.1598  24.0325 0001094  95.8504 166.9600 15.80640169  3222
STARLINK-33588          
1 62781U 25015Z   25034.16668981 -.01183068  00000+0 -68115-2 0  9997
2 62781  53.1599  24.0269 0001128  94.1047 171.1675 15.80609311  3227
STARLINK-33585          
1 62782U 25015AA  25034.16668981 -.01193457  00000+0 -68911-2 0  9995
2 62782  53.1598  24.0228 0001073  87.5797 180.2675 15.80571299  2941
STARLINK-33582          
1 62783U 25015AB  25034.16668981 -.01216063  00000+0 -70735-2 0  9992
2 62783  53.1595  24.0103 0001140  89.2107 184.1248 15.80463035  3162
STARLINK-33581          
1 62784U 25015AC  25034.16668981 -.01203351  00000+0 -69750-2 0  9994
2 62784  53.1599  24.0167 0001053  90.1215 180.5385 15.80510966  3226
TJS-14                  
1 62804U 25017A   25023.82423642  .00000227 -39377-6  00000+0 0  9994
2 62804  28.4771 353.3842 7305768 179.8015 132.0558  2.28112302    01
CZ-3B R/B               
1 62805U 25017B   25033.48848559  .00120822  90716-6  17867-2 0  9995
2 62805  28.4465 349.6192 7232338 185.2554 157.8207  2.39424074   234
STARLINK-32883          
1 62806U 25018A   25034.16668981 -.00950402  00000+0 -38400-2 0  9995
2 62806  53.1473  17.0194 0001103 106.9063 337.8964 15.87812973  2484
STARLINK-32886          
1 62807U 25018B   25033.91668981 -.00895680  00000+0 -35046-2 0  9997
2 62807  53.1473  18.2804 0001282 117.4962 339.1356 15.88323962  2711
STARLINK-32848          
1 62808U 25018C   25033.91668981 -.00900040  00000+0 -35158-2 0  9999
2 62808  53.1476  18.2760 0001307  89.7451   8.9671 15.88366752  2713
STARLINK-32787          
1 62809U 25018D   25033.91668981 -.00911963  00000+0 -35515-2 0  9993
2 62809  53.1474  18.2670 0001160 105.3609 357.6934 15.88456068  2748
STARLINK-32851          
1 62810U 25018E   25033.91668981 -.00904780  00000+0 -35292-2 0  9996
2 62810  53.1475  18.2726 0001135 118.7699 341.8233 15.88407961  2747
STARLINK-32847          
1 62811U 25018F   25033.91668981 -.00919948  00000+0 -35770-2 0  9990
2 62811  53.1473  18.2621 0001269 113.4906 351.9452 15.88504252  2747
STARLINK-32837          
1 62812U 25018G   25033.91668981 -.00923229  00000+0 -35832-2 0  9997
2 62812  53.1475  18.2579 0001375 101.6147   5.8850 15.88546945  2748
